[
    {
        "OBJECT_NAME": "ARIANE 40+ R/B",
        "OBJECT_ID": "1995-021B",
        "EPOCH": "2026-06-06T15:25:03.999360",
        "MEAN_MOTION": 14.39827571,
        "ECCENTRICITY": 0.00058062,
        "INCLINATION": 98.4412,
        "RA_OF_ASC_NODE": 227.8693,
        "ARG_OF_PERICENTER": 227.9484,
        "MEAN_ANOMALY": 255.2585,
        "EPHEMERIS_TYPE": 0,
        "CLASSIFICATION_TYPE": "U",
        "NORAD_CAT_ID": 23561,
        "ELEMENT_SET_NO": 999,
        "REV_AT_EPOCH": 63204,
        "BSTAR": 0.00010138467,
        "MEAN_MOTION_DOT": 2.75e-06,
        "MEAN_MOTION_DDOT": 0
    },
    {
        "OBJECT_NAME": "SL-16 R/B",
        "OBJECT_ID": "1995-058B",
        "EPOCH": "2026-06-06T19:33:45.014976",
        "MEAN_MOTION": 14.15505363,
        "ECCENTRICITY": 0.00133436,
        "INCLINATION": 71.0216,
        "RA_OF_ASC_NODE": 353.1362,
        "ARG_OF_PERICENTER": 334.4552,
        "MEAN_ANOMALY": 25.591,
        "EPHEMERIS_TYPE": 0,
        "CLASSIFICATION_TYPE": "U",
        "NORAD_CAT_ID": 23705,
        "ELEMENT_SET_NO": 999,
        "REV_AT_EPOCH": 58046,
        "BSTAR": -5.4011175e-05,
        "MEAN_MOTION_DOT": -1.53e-06,
        "MEAN_MOTION_DDOT": 0
    },
    {
        "OBJECT_NAME": "SL-16 R/B",
        "OBJECT_ID": "1996-051B",
        "EPOCH": "2026-06-06T18:18:00.269568",
        "MEAN_MOTION": 14.12442526,
        "ECCENTRICITY": 0.00145707,
        "INCLINATION": 70.7634,
        "RA_OF_ASC_NODE": 346.7124,
        "ARG_OF_PERICENTER": 352.8339,
        "MEAN_ANOMALY": 7.257,
        "EPHEMERIS_TYPE": 0,
        "CLASSIFICATION_TYPE": "U",
        "NORAD_CAT_ID": 24298,
        "ELEMENT_SET_NO": 999,
        "REV_AT_EPOCH": 53422,
        "BSTAR": 9.7895818e-05,
        "MEAN_MOTION_DOT": 1.32e-06,
        "MEAN_MOTION_DDOT": 0
    },
    {
        "OBJECT_NAME": "ORBVIEW 2 (SEASTAR)",
        "OBJECT_ID": "1997-037A",
        "EPOCH": "2026-06-06T05:11:52.073952",
        "MEAN_MOTION": 14.35547902,
        "ECCENTRICITY": 0.00028401,
        "INCLINATION": 98.8681,
        "RA_OF_ASC_NODE": 323.9323,
        "ARG_OF_PERICENTER": 139.2437,
        "MEAN_ANOMALY": 220.8961,
        "EPHEMERIS_TYPE": 0,
        "CLASSIFICATION_TYPE": "U",
        "NORAD_CAT_ID": 24883,
        "ELEMENT_SET_NO": 999,
        "REV_AT_EPOCH": 52117,
        "BSTAR": 0.00011832729,
        "MEAN_MOTION_DOT": 2.94e-06,
        "MEAN_MOTION_DDOT": 0
    },
    {
        "OBJECT_NAME": "SL-16 R/B",
        "OBJECT_ID": "1998-043G",
        "EPOCH": "2026-06-06T15:04:24.590496",
        "MEAN_MOTION": 14.26066813,
        "ECCENTRICITY": 0.00108256,
        "INCLINATION": 98.8359,
        "RA_OF_ASC_NODE": 111.6968,
        "ARG_OF_PERICENTER": 113.9621,
        "MEAN_ANOMALY": 246.2693,
        "EPHEMERIS_TYPE": 0,
        "CLASSIFICATION_TYPE": "U",
        "NORAD_CAT_ID": 25400,
        "ELEMENT_SET_NO": 999,
        "REV_AT_EPOCH": 45166,
        "BSTAR": 4.4086741e-05,
        "MEAN_MOTION_DOT": 6e-07,
        "MEAN_MOTION_DDOT": 0
    },
    {
        "OBJECT_NAME": "SL-16 R/B",
        "OBJECT_ID": "1998-045B",
        "EPOCH": "2026-06-06T18:46:31.526976",
        "MEAN_MOTION": 14.16204379,
        "ECCENTRICITY": 0.0009537,
        "INCLINATION": 71.012,
        "RA_OF_ASC_NODE": 354.2122,
        "ARG_OF_PERICENTER": 253.9614,
        "MEAN_ANOMALY": 106.0459,
        "EPHEMERIS_TYPE": 0,
        "CLASSIFICATION_TYPE": "U",
        "NORAD_CAT_ID": 25407,
        "ELEMENT_SET_NO": 999,
        "REV_AT_EPOCH": 43971,
        "BSTAR": 7.9798989e-05,
        "MEAN_MOTION_DOT": 1.1e-06,
        "MEAN_MOTION_DDOT": 0
    },
    {
        "OBJECT_NAME": "ISS (ZARYA)",
        "OBJECT_ID": "1998-067A",
        "EPOCH": "2026-06-06T20:52:03.052128",
        "MEAN_MOTION": 15.4964234,
        "ECCENTRICITY": 0.00069776,
        "INCLINATION": 51.6338,
        "RA_OF_ASC_NODE": 351.1688,
        "ARG_OF_PERICENTER": 142.0049,
        "MEAN_ANOMALY": 218.1433,
        "EPHEMERIS_TYPE": 0,
        "CLASSIFICATION_TYPE": "U",
        "NORAD_CAT_ID": 25544,
        "ELEMENT_SET_NO": 999,
        "REV_AT_EPOCH": 57015,
        "BSTAR": 0.00017236766,
        "MEAN_MOTION_DOT": 9.276e-05,
        "MEAN_MOTION_DDOT": 0
    },
    {
        "OBJECT_NAME": "CZ-4B R/B",
        "OBJECT_ID": "1999-025C",
        "EPOCH": "2026-06-06T20:38:31.212672",
        "MEAN_MOTION": 14.1828172,
        "ECCENTRICITY": 0.00382575,
        "INCLINATION": 98.6488,
        "RA_OF_ASC_NODE": 199.9581,
        "ARG_OF_PERICENTER": 88.5039,
        "MEAN_ANOMALY": 84.677,
        "EPHEMERIS_TYPE": 0,
        "CLASSIFICATION_TYPE": "U",
        "NORAD_CAT_ID": 25732,
        "ELEMENT_SET_NO": 999,
        "REV_AT_EPOCH": 40080,
        "BSTAR": 4.0213776e-05,
        "MEAN_MOTION_DOT": 4.1e-07,
        "MEAN_MOTION_DDOT": 0
    },
    {
        "OBJECT_NAME": "OKEAN-O",
        "OBJECT_ID": "1999-039A",
        "EPOCH": "2026-06-06T16:02:55.634208",
        "MEAN_MOTION": 14.80454739,
        "ECCENTRICITY": 0.00018587,
        "INCLINATION": 97.9319,
        "RA_OF_ASC_NODE": 216.5869,
        "ARG_OF_PERICENTER": 79.37,
        "MEAN_ANOMALY": 280.7721,
        "EPHEMERIS_TYPE": 0,
        "CLASSIFICATION_TYPE": "U",
        "NORAD_CAT_ID": 25860,
        "ELEMENT_SET_NO": 999,
        "REV_AT_EPOCH": 44755,
        "BSTAR": 9.5547592e-05,
        "MEAN_MOTION_DOT": 6.78e-06,
        "MEAN_MOTION_DDOT": 0
    },
    {
        "OBJECT_NAME": "SL-16 R/B",
        "OBJECT_ID": "1999-039B",
        "EPOCH": "2026-06-06T15:11:09.602592",
        "MEAN_MOTION": 14.81834725,
        "ECCENTRICITY": 0.00140879,
        "INCLINATION": 97.9842,
        "RA_OF_ASC_NODE": 216.5254,
        "ARG_OF_PERICENTER": 333.828,
        "MEAN_ANOMALY": 26.2219,
        "EPHEMERIS_TYPE": 0,
        "CLASSIFICATION_TYPE": "U",
        "NORAD_CAT_ID": 25861,
        "ELEMENT_SET_NO": 999,
        "REV_AT_EPOCH": 45003,
        "BSTAR": 7.1887793e-05,
        "MEAN_MOTION_DOT": 5.15e-06,
        "MEAN_MOTION_DDOT": 0
    },
    {
        "OBJECT_NAME": "DELTA 2 R/B",
        "OBJECT_ID": "1999-041E",
        "EPOCH": "2026-06-06T16:47:58.789536",
        "MEAN_MOTION": 14.11997056,
        "ECCENTRICITY": 0.05009929,
        "INCLINATION": 51.7661,
        "RA_OF_ASC_NODE": 305.6881,
        "ARG_OF_PERICENTER": 251.0146,
        "MEAN_ANOMALY": 103.5876,
        "EPHEMERIS_TYPE": 0,
        "CLASSIFICATION_TYPE": "U",
        "NORAD_CAT_ID": 25876,
        "ELEMENT_SET_NO": 999,
        "REV_AT_EPOCH": 37560,
        "BSTAR": 0.00016609722,
        "MEAN_MOTION_DOT": 7.98e-06,
        "MEAN_MOTION_DDOT": 0
    },
    {
        "OBJECT_NAME": "HELIOS 1B",
        "OBJECT_ID": "1999-064A",
        "EPOCH": "2026-06-06T14:54:21.335328",
        "MEAN_MOTION": 14.8797831,
        "ECCENTRICITY": 0.00023165,
        "INCLINATION": 98.1622,
        "RA_OF_ASC_NODE": 62.4548,
        "ARG_OF_PERICENTER": 106.6511,
        "MEAN_ANOMALY": 253.4959,
        "EPHEMERIS_TYPE": 0,
        "CLASSIFICATION_TYPE": "U",
        "NORAD_CAT_ID": 25977,
        "ELEMENT_SET_NO": 999,
        "REV_AT_EPOCH": 69848,
        "BSTAR": 0.00018005068,
        "MEAN_MOTION_DOT": 1.593e-05,
        "MEAN_MOTION_DDOT": 0
    },
    {
        "OBJECT_NAME": "TERRA",
        "OBJECT_ID": "1999-068A",
        "EPOCH": "2026-06-06T22:47:36.971808",
        "MEAN_MOTION": 14.61094985,
        "ECCENTRICITY": 8.794e-05,
        "INCLINATION": 97.946,
        "RA_OF_ASC_NODE": 207.9015,
        "ARG_OF_PERICENTER": 241.8114,
        "MEAN_ANOMALY": 174.838,
        "EPHEMERIS_TYPE": 0,
        "CLASSIFICATION_TYPE": "U",
        "NORAD_CAT_ID": 25994,
        "ELEMENT_SET_NO": 999,
        "REV_AT_EPOCH": 40811,
        "BSTAR": 9.1562476e-05,
        "MEAN_MOTION_DOT": 4.06e-06,
        "MEAN_MOTION_DDOT": 0
    }
]